FALCON 9 DEB            
1 54019U 22125BH  22301.37115571  .00513795  13299-3  78210-3 0  9997
2 54019  53.2197 337.6828 0008666 357.7947   2.3047 16.03842641  3894
CENTISPACE-1 S5         
1 54020U 22126A   22301.50587215  .00000448  00000+0  13633-3 0  9999
2 54020  54.9966 103.6888 0013658 344.0323  16.0246 14.57927658  3060
CENTISPACE-1 S6         
1 54021U 22126B   22301.50238951  .00000405  00000+0  12641-3 0  9991
2 54021  54.9969 103.6708 0015554 343.9183  16.1314 14.58171916  3059
CZ-11H R/B              
1 54022U 22126C   22301.63095556  .00019866  00000+0  34134-3 0  9990
2 54022  56.1447  98.9586 0338995 354.8398   4.9172 15.06730503  3178
OTB-3-GAZELLE           
1 54023U 22127A   22301.42698353 -.00000043  00000+0  00000+0 0  9992
2 54023  98.3163 300.2575 0012228 233.9539 126.0524 14.41647029  2984
ELECTRON KICK STAGE R/B 
1 54024U 22127B   22301.60381327  .00002926  00000+0  40028-3 0  9992
2 54024  98.2945 301.4032 0140665 315.9806  43.0267 14.72739199  3064
ELECTRON R/B            
1 54025U 22127C   22301.59000743  .00153212  69474-5  14151-2 0  9999
2 54025  98.3322 303.0886 0337837 147.1045 215.1854 15.19741646  3166
GALAXY 33               
1 54026U 22128A   22301.54608495  .00000088  00000+0  00000+0 0  9995
2 54026   0.0199 279.6601 0002326 298.5288 242.3087  1.00271681   433
GALAXY 34               
1 54027U 22128B   22301.65006640  .00000133  00000+0  00000+0 0  9993
2 54027   0.0636  74.8654 0007728 199.7887 208.4646  1.00379250   469
FALCON 9 R/B            
1 54028U 22128C   22300.26843511  .00004555  00000+0  11798-2 0  9997
2 54028  26.8694 181.0787 5936092 198.8722 123.4448  4.12049297   755
ASO-S                   
1 54029U 22129A   22301.48249654  .00000159  00000+0  51412-4 0  9997
2 54029  98.2682 306.6624 0014185 203.6507 156.4041 14.50861760  2827
CZ-2D R/B               
1 54030U 22129B   22301.56744583  .00000262  00000+0  71405-4 0  9998
2 54030  98.1948 306.6287 0019397  58.6286 301.6805 14.54809396  2856
COSMOS 2559 [GLONASS-K] 
1 54031U 22130A   22300.65319083 -.00000052  00000+0  00000+0 0  9999
2 54031  64.7713   1.0646 0005493 245.3433 177.5713  2.13019626   376
FREGAT R/B              
1 54032U 22130B   22295.10579347 -.00000060  00000+0  00000+0 0  9993
2 54032  64.7805   1.2292 0026427 174.2783 242.8276  2.11046330   231
ANGOSAT 2               
1 54033U 22131A   22300.85257744  .00000107  00000+0  00000+0 0  9999
2 54033   0.0501 278.1507 0001224  75.3814  17.2500  0.99792087   163
BLOCK DM-SL R/B         
1 54034U 22131B   22294.89994812 -.00000134  00000+0  00000+0 0  9991
2 54034   0.1517 285.1102 0081626 172.5310 263.3147  0.97749073    94
HJ-2E                   
1 54035U 22132A   22301.45530985  .00007124  00000+0  29775-3 0  9990
2 54035  97.3940 306.7907 0012438 211.5012 291.3767 15.23846123  2353
2022-132B               
1 54036U 22132B   22301.87942264  .00136364  00000+0  39688-2 0  9996
2 54036  97.3539 307.3481 0031342 265.0262 191.5238 15.34391093  2434
2022-132C               
1 54037U 22132C   22301.61447249  .00011657  00000+0  11288-2 0  9995
2 54037  97.6510 306.3975 0189274 120.5476 241.4530 14.80304854  2321
2022-132D               
1 54038U 22132D   22301.59909993  .00024930  00000+0  12135-2 0  9992
2 54038  97.5894 307.0596 0099899 178.8934 181.2389 15.13987346  2368
CZ-2C R/B               
1 54039U 22132E   22301.47223125  .00003180  00000+0  16554-3 0  9990
2 54039  97.2516 306.1529 0048286 156.8557 347.8621 15.15695872  2343
2022-132F               
1 54040U 22132F   22301.59961133  .00022919  00000+0  12677-2 0  9995
2 54040  97.1617 306.1235 0123238 169.5660 190.8116 15.07504846  2354
2022-132G               
1 54041U 22132G   22301.59166540  .00012019  00000+0  10374-2 0  9997
2 54041  97.1912 305.7599 0151227 117.0105 244.6584 14.88888845  2328
YAOGAN-36 02A           
1 54042U 22133A   22301.22775372 -.00027494  00000+0 -11044-2 0  9998
2 54042  35.0005 202.1388 0005859  17.0353  93.5623 15.24166110  2052
YAOGAN-36 02B           
1 54043U 22133B   22301.46574074  .00008779  00000+0  35224-3 0  9991
2 54043  35.0000 200.6284 0009695  49.3732 292.5431 15.24205694  2089
CZ-2D R/B               
1 54044U 22133C   22301.39743483  .00022818  00000+0  88034-3 0  9993
2 54044  34.9994 200.9682 0007855  32.4670 327.6527 15.25372108  2087
YAOGAN-36 02C           
1 54045U 22133D   22301.49691017  .00012607  00000+0  50406-3 0  9997
2 54045  34.9987 200.3838 0012528  45.6761 125.4193 15.24229430  2099
CZ-2D DEB               
1 54046U 22133E   22301.72774752  .00018590  00000+0  72586-3 0  9992
2 54046  34.9986 198.9276 0007263  26.2134 333.9452 15.25009410  2130
2022-134A               
1 54048U 22134A   22300.05421303  .00000029  00000+0  00000+0 0  9997
2 54048  23.4914 298.8176 7874179 183.3957 156.2566  1.25250289   157
2022-134B               
1 54049U 22134B   22301.22799354 -.00000187  00000+0 -11820-2 0  9994
2 54049  26.7625 298.4595 8048670 184.1062 157.6861  1.34294490   177
COSMOS 2560             
1 54050U 22135A   22301.57895594  .00178456  00000+0  88474-3 0  9991
2 54050  96.3459  28.5710 0011840 199.8763 281.5296 15.81424748  2001
STARLINK-5195           
1 54051U 22136A   22301.58335648 -.01228089  00000+0 -65849-2 0  9994
2 54051  53.2174 108.5692 0003623  16.1672 308.5435 15.82197346  1305
STARLINK-5189           
1 54052U 22136B   22301.58335648 -.00862800  22545-3 -30609-2 0  9997
2 54052  53.2175 108.5142 0021280  79.2237 279.4949 15.87888141  1304
STARLINK-5176           
1 54053U 22136C   22301.58335648 -.01209245  00000+0 -64740-2 0  9998
2 54053  53.2174 108.5684 0003040   6.8030 318.3504 15.82196705  1309
STARLINK-5163           
1 54054U 22136D   22301.58335648 -.01208914  00000+0 -64527-2 0  9994
2 54054  53.2174 108.5652 0003781  17.4573 308.8236 15.82249388  1309
STARLINK-5158           
1 54055U 22136E   22301.58335648 -.01208705  00000+0 -64588-2 0  9990
2 54055  53.2174 108.5667 0003486  10.5167 315.4148 15.82229590  1300
STARLINK-5226           
1 54056U 22136F   22301.58335648 -.01207837  00000+0 -64429-2 0  9990
2 54056  53.2174 108.5644 0003966  20.4420 306.3228 15.82257572  1300
STARLINK-5216           
1 54057U 22136G   22301.58335648 -.01208393  00000+0 -64404-2 0  9992
2 54057  53.2174 108.5643 0003866  21.0436 306.0636 15.82278217  1302
STARLINK-5167           
1 54058U 22136H   22301.58335648 -.01262183  00000+0 -67436-2 0  9998
2 54058  53.2174 108.5620 0003395   6.8728 321.0018 15.82350723  1304
STARLINK-5173           
1 54059U 22136J   22301.58335648 -.01055161  00000+0 -56739-2 0  9999
2 54059  53.2179 108.5630 0001056  62.3409 265.2079 15.82198550  1300
STARLINK-5169           
1 54060U 22136K   22301.58335648 -.01115444  37232-3 -32643-2 0  9991
2 54060  53.2170 108.2081 0018758  71.4755  67.1862 15.91791788  1303
STARLINK-5209           
1 54061U 22136L   22301.58335648 -.00332973  44510-4 -12649-2 0  9991
2 54061  53.2167 108.5393 0019839  70.0390 270.1724 15.86388016  1303
STARLINK-5170           
1 54062U 22136M   22301.58335648 -.01187944  00000+0 -63110-2 0  9999
2 54062  53.2174 108.5607 0001898 336.1676 352.5135 15.82328128  1304
STARLINK-5225           
1 54063U 22136N   22301.58335648 -.01222647  00000+0 -64991-2 0  9998
2 54063  53.2174 108.5605 0003450   9.8789 319.1682 15.82371295  1307
STARLINK-5172           
1 54064U 22136P   22301.58335648 -.01170593  00000+0 -60172-2 0  9998
2 54064  53.2173 108.5259 0003026  17.7594 327.4004 15.82971021  1306
STARLINK-5187           
1 54065U 22136Q   22301.58335648 -.01229187  00000+0 -65277-2 0  9994
2 54065  53.2174 108.5591 0003177 359.9882 329.8315 15.82409329  1303
STARLINK-5151           
1 54066U 22136R   22301.58335648 -.01229968  00000+0 -65373-2 0  9999
2 54066  53.2174 108.5594 0003176 359.1054 330.3267 15.82393449  1307
STARLINK-5174           
1 54067U 22136S   22301.58335648 -.01187256  00000+0 -62802-2 0  9997
2 54067  53.2174 108.5577 0002602 359.4867 331.1461 15.82409198  1301
STARLINK-5222           
1 54068U 22136T   22301.58335648 -.00884467  00000+0 -46620-2 0  9995
2 54068  53.2171 108.5570 0001283  62.6980 267.6363 15.82183716  1304
STARLINK-5223           
1 54069U 22136U   22301.58335648 -.01187234  00000+0 -62579-2 0  9996
2 54069  53.2174 108.5544 0003342   6.4201 325.7621 15.82474000  1301
STARLINK-5181           
1 54070U 22136V   22301.58335648 -.01225092  00000+0 -64890-2 0  9991
2 54070  53.2174 108.5565 0003261   4.0886 326.9093 15.82454300  1306
STARLINK-5168           
1 54071U 22136W   22301.58335648 -.01205244  00000+0 -63653-2 0  9995
2 54071  53.2174 108.5554 0003246   6.6013 325.1669 15.82472893  1305
STARLINK-5144           
1 54072U 22136X   22301.58335648 -.01202927  00000+0 -63570-2 0  9999
2 54072  53.2174 108.5558 0003249   1.9479 329.4348 15.82454760  1301
STARLINK-5146           
1 54073U 22136Y   22301.58335648 -.01185905  00000+0 -62349-2 0  9999
2 54073  53.2174 108.5523 0003440  10.4688 322.8489 15.82523822  1303
STARLINK-5192           
1 54074U 22136Z   22301.58335648 -.01186745  00000+0 -62508-2 0  9990
2 54074  53.2174 108.5535 0003092 357.9706 334.5783 15.82491644  1303
STARLINK-5212           
1 54075U 22136AA  22301.58335648 -.01185981  00000+0 -62312-2 0  9995
2 54075  53.2174 108.5517 0003148 359.7206 333.9625 15.82541884  1301
STARLINK-5201           
1 54076U 22136AB  22301.58335648 -.01187549  00000+0 -62503-2 0  9990
2 54076  53.2174 108.5527 0003218   1.4738 331.4727 15.82507633  1302
STARLINK-5171           
1 54077U 22136AC  22301.58335648 -.01120059  00000+0 -58500-2 0  9996
2 54077  53.2174 108.5492 0001618  58.3801 276.4878 15.82543935  1308
STARLINK-5138           
1 54078U 22136AD  22301.58335648 -.01186543  00000+0 -62310-2 0  9991
2 54078  53.2174 108.5499 0001491 346.0521 348.4247 15.82574045  1307
